start=new Date('2022-05-24T00:00:00.000Z').valueOf();
sats=[{"SEMIMAJOR_AXIS":"6917.927","CLASSIFICATION_TYPE":"U","MEAN_ANOMALY":"355.2788","CENTER_NAME":"EARTH","LAUNCH_DATE":"2021-12-18","RA_OF_ASC_NODE":"340.0931","BSTAR":"0.00230880000000","EPOCH":"2022-05-23T22:00:01.999584","SITE":"AFWTR","APOAPSIS":"541.219","TIME_SYSTEM":"UTC","INCLINATION":"53.2159","NORAD_CAT_ID":"50188","TLE_LINE1":"1 50188U 21125AJ  22143.91668981  .00036633  00000-0  23088-2 0  9997","GP_ID":"204367370","MEAN_MOTION_DDOT":"0.0000000000000","OBJECT_ID":"2021-125AJ","DECAY_DATE":null,"COUNTRY_CODE":"US","REV_AT_EPOCH":"130","ELEMENT_SET_NO":"999","MEAN_ELEMENT_THEORY":"SGP4","EPHEMERIS_TYPE":"0","TLE_LINE2":"2 50188  53.2159 340.0931 0002062  42.2252 355.2788 15.08824653  1300","FILE":"3460905","MEAN_MOTION_DOT":"0.00036633","PERIOD":"95.439","OBJECT_NAME":"STARLINK-3275","RCS_SIZE":"LARGE","ECCENTRICITY":"0.00020620","PERIAPSIS":"538.366","ARG_OF_PERICENTER":"42.2252","REF_FRAME":"TEME","OBJECT_TYPE":"PAYLOAD","MEAN_MOTION":"15.08824653"},{"SEMIMAJOR_AXIS":"6917.884","MEAN_ANOMALY":"326.5058","CLASSIFICATION_TYPE":"U","CENTER_NAME":"EARTH","LAUNCH_DATE":"2021-12-18","RA_OF_ASC_NODE":"350.0969","BSTAR":"0.00006603600000","EPOCH":"2022-05-23T22:00:01.999584","SITE":"AFWTR","APOAPSIS":"540.977","TIME_SYSTEM":"UTC","INCLINATION":"53.2176","NORAD_CAT_ID":"50189","TLE_LINE1":"1 50189U 21125AK  22143.91668981  .00000763  00000-0  66036-4 0  9995","GP_ID":"204368122","MEAN_MOTION_DDOT":"0.0000000000000","OBJECT_ID":"2021-125AK","COUNTRY_CODE":"US","DECAY_DATE":null,"REV_AT_EPOCH":"130","ELEMENT_SET_NO":"999","MEAN_ELEMENT_THEORY":"SGP4","EPHEMERIS_TYPE":"0","TLE_LINE2":"2 50189  53.2176 350.0969 0001775  55.9703 326.5058 15.08838924  1301","FILE":"3460905","MEAN_MOTION_DOT":"0.00000763","PERIOD":"95.438","RCS_SIZE":"LARGE","OBJECT_NAME":"STARLINK-3276","ECCENTRICITY":"0.00017750","PERIAPSIS":"538.521","ARG_OF_PERICENTER":"55.9703","REF_FRAME":"TEME","OBJECT_TYPE":"PAYLOAD","MEAN_MOTION":"15.08838924"},{"NORAD_CAT_ID":"50190","TLE_LINE1":"1 50190U 21125AL  22143.91668981  .00029432  00000-0  18601-2 0  9994","GP_ID":"204366872","EPOCH":"2022-05-23T22:00:01.999584","SITE":"AFWTR","TIME_SYSTEM":"UTC","INCLINATION":"53.2167","APOAPSIS":"541.080","CENTER_NAME":"EARTH","RA_OF_ASC_NODE":"340.0941","LAUNCH_DATE":"2021-12-18","MEAN_ANOMALY":"71.3618","CLASSIFICATION_TYPE":"U","BSTAR":"0.00186010000000","SEMIMAJOR_AXIS":"6917.910","OBJECT_TYPE":"PAYLOAD","MEAN_MOTION":"15.08830348","ECCENTRICITY":"0.00018860","ARG_OF_PERICENTER":"46.1433","REF_FRAME":"TEME","PERIAPSIS":"538.470","PERIOD":"95.438","OBJECT_NAME":"STARLINK-3268","RCS_SIZE":"LARGE","COUNTRY_CODE":"US","DECAY_DATE":null,"REV_AT_EPOCH":"130","OBJECT_ID":"2021-125AL","MEAN_MOTION_DDOT":"0.0000000000000","MEAN_ELEMENT_THEORY":"SGP4","EPHEMERIS_TYPE":"0","TLE_LINE2":"2 50190  53.2167 340.0941 0001886  46.1433  71.3618 15.08830348  1306","FILE":"3460905","MEAN_MOTION_DOT":"0.00029432","ELEMENT_SET_NO":"999"},{"DECAY_DATE":null,"COUNTRY_CODE":"US","REV_AT_EPOCH":"130","OBJECT_ID":"2021-125AM","MEAN_MOTION_DDOT":"0.0000000000000","MEAN_ELEMENT_THEORY":"SGP4","EPHEMERIS_TYPE":"0","TLE_LINE2":"2 50191  53.2157   0.1144 0002255  32.6351  34.8395 15.08844513  1300","FILE":"3460905","MEAN_MOTION_DOT":"-0.00016262","ELEMENT_SET_NO":"999","PERIOD":"95.437","OBJECT_NAME":"STARLINK-3273","RCS_SIZE":"LARGE","ECCENTRICITY":"0.00022550","ARG_OF_PERICENTER":"32.6351","REF_FRAME":"TEME","PERIAPSIS":"538.172","OBJECT_TYPE":"PAYLOAD","MEAN_MOTION":"15.08844513","SEMIMAJOR_AXIS":"6917.867","CENTER_NAME":"EARTH","RA_OF_ASC_NODE":"0.1144","LAUNCH_DATE":"2021-12-18","CLASSIFICATION_TYPE":"U","MEAN_ANOMALY":"34.8395","BSTAR":"-0.00100580000000","EPOCH":"2022-05-23T22:00:01.999584","SITE":"AFWTR","TIME_SYSTEM":"UTC","INCLINATION":"53.2157","APOAPSIS":"541.292","NORAD_CAT_ID":"50191","TLE_LINE1":"1 50191U 21125AM  22143.91668981 -.00016262  00000-0 -10058-2 0  9992","GP_ID":"204367122"},{"ECCENTRICITY":"0.00018560","PERIAPSIS":"538.591","REF_FRAME":"TEME","ARG_OF_PERICENTER":"46.0656","OBJECT_TYPE":"PAYLOAD","MEAN_MOTION":"15.08797587","OBJECT_ID":"2021-125AN","MEAN_MOTION_DDOT":"0.0000000000000","REV_AT_EPOCH":"130","COUNTRY_CODE":"US","DECAY_DATE":null,"ELEMENT_SET_NO":"999","TLE_LINE2":"2 50192  53.2175 340.0979 0001856  46.0656  91.4487 15.08797587  1305","MEAN_MOTION_DOT":"0.00028407","FILE":"3460905","MEAN_ELEMENT_THEORY":"SGP4","EPHEMERIS_TYPE":"0","PERIOD":"95.440","OBJECT_NAME":"STARLINK-3259","RCS_SIZE":"LARGE","SITE":"AFWTR","EPOCH":"2022-05-23T22:00:01.999584","APOAPSIS":"541.159","INCLINATION":"53.2175","TIME_SYSTEM":"UTC","NORAD_CAT_ID":"50192","TLE_LINE1":"1 50192U 21125AN  22143.91668981  .00028407  00000-0  17978-2 0  9993","GP_ID":"204367870","SEMIMAJOR_AXIS":"6918.010","MEAN_ANOMALY":"91.4487","CLASSIFICATION_TYPE":"U","RA_OF_ASC_NODE":"340.0979","LAUNCH_DATE":"2021-12-18","CENTER_NAME":"EARTH","BSTAR":"0.00179780000000"},{"MEAN_MOTION":"15.08850795","OBJECT_TYPE":"PAYLOAD","REF_FRAME":"TEME","ARG_OF_PERICENTER":"44.7343","PERIAPSIS":"538.514","ECCENTRICITY":"0.00017320","RCS_SIZE":"LARGE","OBJECT_NAME":"STARLINK-3261","PERIOD":"95.437","TLE_LINE2":"2 50193  53.2164 340.0939 0001732  44.7343  32.7410 15.08850795  1306","FILE":"3460905","MEAN_MOTION_DOT":"-0.00007873","EPHEMERIS_TYPE":"0","MEAN_ELEMENT_THEORY":"SGP4","ELEMENT_SET_NO":"999","REV_AT_EPOCH":"130","DECAY_DATE":null,"COUNTRY_CODE":"US","MEAN_MOTION_DDOT":"0.0000000000000","OBJECT_ID":"2021-125AP","TLE_LINE1":"1 50193U 21125AP  22143.91668981 -.00007873  00000-0 -47693-3 0  9998","GP_ID":"204367623","NORAD_CAT_ID":"50193","INCLINATION":"53.2164","TIME_SYSTEM":"UTC","APOAPSIS":"540.911","SITE":"AFWTR","EPOCH":"2022-05-23T22:00:01.999584","BSTAR":"-0.00047693000000","RA_OF_ASC_NODE":"340.0939","LAUNCH_DATE":"2021-12-18","CENTER_NAME":"EARTH","MEAN_ANOMALY":"32.7410","CLASSIFICATION_TYPE":"U","SEMIMAJOR_AXIS":"6917.847"},{"NORAD_CAT_ID":"50194","GP_ID":"204366373","TLE_LINE1":"1 50194U 21125AQ  22143.91668981  .00024636  00000-0  15611-2 0  9997","EPOCH":"2022-05-23T22:00:01.999584","SITE":"AFWTR","TIME_SYSTEM":"UTC","INCLINATION":"53.2160","APOAPSIS":"540.978","CENTER_NAME":"EARTH","RA_OF_ASC_NODE":"340.0929","LAUNCH_DATE":"2021-12-18","MEAN_ANOMALY":"112.2588","CLASSIFICATION_TYPE":"U","BSTAR":"0.00156110000000","SEMIMAJOR_AXIS":"6917.918","OBJECT_TYPE":"PAYLOAD","MEAN_MOTION":"15.08827693","ECCENTRICITY":"0.00017270","ARG_OF_PERICENTER":"45.2384","REF_FRAME":"TEME","PERIAPSIS":"538.588","PERIOD":"95.438","RCS_SIZE":"LARGE","OBJECT_NAME":"STARLINK-3269","DECAY_DATE":null,"COUNTRY_CODE":"US","REV_AT_EPOCH":"130","OBJECT_ID":"2021-125AQ","MEAN_MOTION_DDOT":"0.0000000000000","EPHEMERIS_TYPE":"0","MEAN_ELEMENT_THEORY":"SGP4","FILE":"3460905","TLE_LINE2":"2 50194  53.2160 340.0929 0001727  45.2384 112.2588 15.08827693  1308","MEAN_MOTION_DOT":"0.00024636","ELEMENT_SET_NO":"999"},{"MEAN_ANOMALY":"47.6021","CLASSIFICATION_TYPE":"U","RA_OF_ASC_NODE":"340.0943","LAUNCH_DATE":"2021-12-18","CENTER_NAME":"EARTH","BSTAR":"0.00249140000000","SEMIMAJOR_AXIS":"6917.936","NORAD_CAT_ID":"50195","GP_ID":"204366623","TLE_LINE1":"1 50195U 21125AR  22143.91668981  .00039566  00000-0  24914-2 0  9992","SITE":"AFWTR","EPOCH":"2022-05-23T22:00:01.999584","APOAPSIS":"541.058","INCLINATION":"53.2167","TIME_SYSTEM":"UTC","PERIOD":"95.439","RCS_SIZE":"LARGE","OBJECT_NAME":"STARLINK-3266","MEAN_MOTION_DDOT":"0.0000000000000","OBJECT_ID":"2021-125AR","REV_AT_EPOCH":"130","COUNTRY_CODE":"US","DECAY_DATE":null,"ELEMENT_SET_NO":"999","TLE_LINE2":"2 50195  53.2167 340.0943 0001817  49.8587  47.6021 15.08821705  1308","FILE":"3460905","MEAN_MOTION_DOT":"0.00039566","EPHEMERIS_TYPE":"0","MEAN_ELEMENT_THEORY":"SGP4","OBJECT_TYPE":"PAYLOAD","MEAN_MOTION":"15.08821705","ECCENTRICITY":"0.00018170","PERIAPSIS":"538.544","REF_FRAME":"TEME","ARG_OF_PERICENTER":"49.8587"},{"GP_ID":"204367371","TLE_LINE1":"1 50196U 21125AS  22143.91668981  .00044639  00000-0  28068-2 0  9994","NORAD_CAT_ID":"50196","INCLINATION":"53.2182","TIME_SYSTEM":"UTC","APOAPSIS":"541.458","SITE":"AFWTR","EPOCH":"2022-05-23T22:00:01.999584","BSTAR":"0.00280680000000","RA_OF_ASC_NODE":"340.0908","LAUNCH_DATE":"2021-12-18","CENTER_NAME":"EARTH","MEAN_ANOMALY":"161.3396","CLASSIFICATION_TYPE":"U","SEMIMAJOR_AXIS":"6917.949","MEAN_MOTION":"15.08817555","OBJECT_TYPE":"PAYLOAD","REF_FRAME":"TEME","ARG_OF_PERICENTER":"36.1280","PERIAPSIS":"538.170","ECCENTRICITY":"0.00023770","RCS_SIZE":"LARGE","OBJECT_NAME":"STARLINK-3263","PERIOD":"95.439","FILE":"3460905","TLE_LINE2":"2 50196  53.2182 340.0908 0002377  36.1280 161.3396 15.08817555  1305","MEAN_MOTION_DOT":"0.00044639","EPHEMERIS_TYPE":"0","MEAN_ELEMENT_THEORY":"SGP4","ELEMENT_SET_NO":"999","REV_AT_EPOCH":"130","DECAY_DATE":null,"COUNTRY_CODE":"US","OBJECT_ID":"2021-125AS","MEAN_MOTION_DDOT":"0.0000000000000"},{"MEAN_MOTION":"15.08808020","OBJECT_TYPE":"PAYLOAD","REF_FRAME":"TEME","ARG_OF_PERICENTER":"44.8454","PERIAPSIS":"538.590","ECCENTRICITY":"0.00018110","RCS_SIZE":"LARGE","OBJECT_NAME":"STARLINK-3267","PERIOD":"95.440","TLE_LINE2":"2 50197  53.2183 340.0898 0001811  44.8454 132.6193 15.08808020  1309","FILE":"3460905","MEAN_MOTION_DOT":"0.00035112","EPHEMERIS_TYPE":"0","MEAN_ELEMENT_THEORY":"SGP4","ELEMENT_SET_NO":"999","REV_AT_EPOCH":"130","DECAY_DATE":null,"COUNTRY_CODE":"US","OBJECT_ID":"2021-125AT","MEAN_MOTION_DDOT":"0.0000000000000","TLE_LINE1":"1 50197U 21125AT  22143.91668981  .00035112  00000-0  22152-2 0  9999","GP_ID":"204368123","NORAD_CAT_ID":"50197","INCLINATION":"53.2183","TIME_SYSTEM":"UTC","APOAPSIS":"541.096","SITE":"AFWTR","EPOCH":"2022-05-23T22:00:01.999584","BSTAR":"0.00221520000000","LAUNCH_DATE":"2021-12-18","RA_OF_ASC_NODE":"340.0898","CENTER_NAME":"EARTH","MEAN_ANOMALY":"132.6193","CLASSIFICATION_TYPE":"U","SEMIMAJOR_AXIS":"6917.978"}];
